{
  "norad_id": 56721,
  "name": "ONEWEB-0686",
  "history": [
    {
      "epoch": "2026-03-28T19:10:59.460384Z",
      "apogee_km": 1199.1261719027707,
      "perigee_km": 1196.3786998399582,
      "latitude_deg": -5.842112706652637e-05,
      "longitude_deg": 130.81628503407993,
      "height_km": 1200.6107391467629,
      "semi_major_axis_km": 7575.889435871364,
      "eccentricity": 0.00018133,
      "inclination_deg": 87.9021,
      "raan_deg": 244.7786,
      "arg_perigee_deg": 88.516,
      "mean_anomaly_deg": 271.6178,
      "mean_motion_rev_day": 13.1659536
    }
  ]
}