{"fetched_at":"2026-03-30T06:02:59Z","count":15439,"tles":[{"name":"ONEWEB-0686","line1":"1 56721U 23068M   26087.79929931  .00000027  00000+0  37005-4 0  9999","line2":"2 56721  87.9021 244.7786 0001813  88.5160 271.6178 13.16595360141130","category":"Other"}]}